IRIDIUM 8 [+]           
1 24792U 97020A   15334.59998937  .00000227  00000-0  74167-4 0  9997
2 24792  86.3983 194.6812 0002027  87.9901 272.1527 14.34216359972270
IRIDIUM 7 [+]           
1 24793U 97020B   15334.59364663  .00000205  00000-0  66235-4 0  9994
2 24793  86.3987 194.9357 0002007  86.4241 273.7184 14.34216587972270
IRIDIUM 6 [+]           
1 24794U 97020C   15334.58718329  .00000218  00000-0  70742-4 0  9998
2 24794  86.3985 194.8816 0002115  84.3008 275.8429 14.34216111972274
IRIDIUM 5 [+]           
1 24795U 97020D   15334.58096916  .00000246  00000-0  80701-4 0  9997
2 24795  86.3974 194.9389 0001882  82.6820 277.4590 14.34216264972357
IRIDIUM 4 [-]           
1 24796U 97020E   15334.56857104  .00000242  00000-0  78130-4 0  9999
2 24796  86.3980 194.2130 0002131  89.6668 297.9945 14.35013942972335
IRIDIUM 914 [-]         
1 24836U 97030A   15334.18016876  .00000199  00000-0  58455-4 0  9995
2 24836  86.3970 212.6272 0002949 120.0185 354.0252 14.38615364967713
IRIDIUM 12 [+]          
1 24837U 97030B   15334.27102822  .00000339  00000-0  11390-3 0  9995
2 24837  86.3990 226.1990 0001996  84.2547  33.4442 14.34216621965971
IRIDIUM 10 [+]          
1 24839U 97030D   15334.25822141  .00000347  00000-0  11685-3 0  9994
2 24839  86.3989 226.1875 0002022  84.8891  32.1951 14.34217047965987
IRIDIUM 13 [+]          
1 24840U 97030E   15334.34723645  .00000342  00000-0  11499-3 0  9993
2 24840  86.3991 226.2783 0001854  86.0516  32.1649 14.34217054965983
IRIDIUM 16 [-]          
1 24841U 97030F   15334.26627818  .00000251  00000-0  78659-4 0  9991
2 24841  86.4069 226.5387 0002481  29.1265 331.0070 14.36581472966474
IRIDIUM 911 [-]         
1 24842U 97030G   15334.43502387  .00000315  00000-0  84816-4 0  9997
2 24842  86.4497 227.5801 0015049 158.5805 321.2401 14.44774950971393
IRIDIUM 15 [+]          
1 24869U 97034A   15334.33705966  .00000044  00000-0  85566-5 0  9990
2 24869  86.3977 257.8860 0002116  82.6938  31.0459 14.34212330962959
IRIDIUM 17 [-]          
1 24870U 97034B   15334.36992904  .00000279  00000-0  89991-4 0  9990
2 24870  86.3984 256.7593 0001175  93.1825  28.0878 14.35603732963128
IRIDIUM 920 [-]         
1 24871U 97034C   15334.29371422  .00000252  00000-0  74696-4 0  9996
2 24871  86.4003 244.3396 0013330  45.4466  67.9327 14.39338204965095
IRIDIUM 18 [+]          
1 24872U 97034D   15334.55606861  .00000363  00000-0  12272-3 0  9998
2 24872  86.3979 258.0200 0002157  79.8398 280.3041 14.34213234962982
IRIDIUM 921 [-]         
1 24873U 97034E   15334.56020610  .00003930  00000-0  24298-3 0  9996
2 24873  86.3939 332.5129 0005371 303.0599 195.4589 15.09552313  2865
IRIDIUM 26 [-]          
1 24903U 97043A   15334.57101713  .00000227  00000-0  72714-4 0  9998
2 24903  86.3957 131.2006 0002134  86.1879 318.7690 14.35132955956990
IRIDIUM 25 [+]          
1 24904U 97043B   15334.50434170  .00000066  00000-0  16559-4 0  9994
2 24904  86.3952 131.5232 0002036  88.0923 272.0506 14.34215755956887
IRIDIUM 46 [+]          
1 24905U 97043C   15334.51702647  .00000063  00000-0  15419-4 0  9994
2 24905  86.3960 132.0198 0002102  90.8650 269.2786 14.34215912956890
IRIDIUM 23 [S]          
1 24906U 97043D   15334.51921176  .00000063  00000-0  15605-4 0  9992
2 24906  86.3965 131.4795 0002162  89.6097 314.5318 14.34215774956902
IRIDIUM 22 [+]          
1 24907U 97043E   15334.09349141  .00000016  00000-0 -14724-5 0  9993
2 24907  86.3963 132.2979 0001963  88.1405  50.2343 14.34215723956837
DUMMY MASS 1 [-]        
1 24925U 97048A   15334.33107639  .00000277  00000-0  29194-4 0  9993
2 24925  86.3336 303.7854 0005095 225.6299 134.4508 14.85018010987756
DUMMY MASS 2 [-]        
1 24926U 97048B   15334.37908098  .00000271  00000-0  28707-4 0  9999
2 24926  86.3336 304.7867 0005709 236.8497 284.1345 14.84787306987626
IRIDIUM 29 [-]          
1 24944U 97051A   15334.55188337  .00000266  00000-0  87483-4 0  9999
2 24944  86.3962 163.0610 0002160  96.9220 263.2221 14.34518216953485
IRIDIUM 32 [+]          
1 24945U 97051B   15334.37458027  .00000028  00000-0  28455-5 0  9997
2 24945  86.3961 163.2256 0002075  89.4346 270.7087 14.34217678953463
IRIDIUM 33 [-]          
1 24946U 97051C   15334.48146220  .00000184  00000-0  59591-4 0  9996
2 24946  86.3877 163.0913 0005894 287.8560  99.7667 14.33439344953145
IRIDIUM 28 [-]          
1 24948U 97051E   15334.51131262  .00000216  00000-0  68477-4 0  9991
2 24948  86.3966 162.6299 0001943  79.3766 309.9742 14.35419646953573
IRIDIUM 30 [+]          
1 24949U 97051F   15334.50777462  .00000030  00000-0  35456-5 0  9995
2 24949  86.3963 163.2570 0002135  88.0871 272.0569 14.34217831953464
IRIDIUM 31 [+]          
1 24950U 97051G   15334.57119953  .00000033  00000-0  46697-5 0  9991
2 24950  86.3962 163.2313 0001966  92.7027 267.4393 14.34217964953488
IRIDIUM 19 [+]          
1 24965U 97056A   15334.55558942  .00000218  00000-0  70787-4 0  9996
2 24965  86.3984 194.7067 0002001  86.7557 273.3868 14.34220185951621
IRIDIUM 35 [+]          
1 24966U 97056B   15334.56827792  .00000230  00000-0  75098-4 0  9994
2 24966  86.3983 194.6995 0002011  86.2069 273.9357 14.34216457951608
IRIDIUM 36 [-]          
1 24967U 97056C   15334.60572464  .00000201  00000-0  63149-4 0  9995
2 24967  86.3994 194.1785 0001955  92.2972 297.5497 14.35466290951878
IRIDIUM 37 [+]          
1 24968U 97056D   15334.61267847  .00000083  00000-0  22587-4 0  9992
2 24968  86.3986 194.8508 0002021  87.1031 273.0396 14.34216628951610
IRIDIUM 34 [+]          
1 24969U 97056E   15334.56195000  .00000226  00000-0  73808-4 0  9999
2 24969  86.3985 194.8095 0001963  87.0641 273.0779 14.34219060951608
IRIDIUM 43 [+]          
1 25039U 97069A   15334.41018519  .00000393  00000-0  13315-3 0  9996
2 25039  86.3990 257.9971 0001985  84.5890 275.5532 14.34213024945363
IRIDIUM 41 [+]          
1 25040U 97069B   15334.35664137  .00000334  00000-0  11237-3 0  9990
2 25040  86.3979 257.9923 0002191  78.6804  37.9025 14.34212057945359
IRIDIUM 40 [+]          
1 25041U 97069C   15334.28966047  .00000372  00000-0  12591-3 0  9994
2 25041  86.3984 258.2437 0001620 113.6399 246.4966 14.34219152945360
IRIDIUM 39 [+]          
1 25042U 97069D   15334.29602129  .00000032  00000-0  42949-5 0  9999
2 25042  86.4013 258.2783 0002994  71.6601 288.4920 14.34216645945341
IRIDIUM 38 [-]          
1 25043U 97069E   15334.31855453  .00000293  00000-0  94216-4 0  9995
2 25043  86.3983 255.8584 0001955  52.8024  59.6338 14.35884232945676
IRIDIUM 42 [-]          
1 25077U 97077A   15334.45232084  .00000243  00000-0  79450-4 0  9993
2 25077  86.3983 257.9844 0002025  80.7268 279.4157 14.34427207941237
IRIDIUM 44 [-]          
1 25078U 97077B   15334.29631738  .00000317  00000-0  98472-4 0  9992
2 25078  86.3989 249.0120 0001862  37.0528  75.9460 14.37955021942459
IRIDIUM 45 [+]          
1 25104U 97082A   15334.49509137  .00000023  00000-0  10778-5 0  9995
2 25104  86.3960 163.3099 0002228  46.8924 313.2458 14.34217620939438
IRIDIUM 24 [-]          
1 25105U 97082B   15334.52050506  .00000286  00000-0  84863-4 0  9997
2 25105  86.3923 113.8994 0013150  51.3252  21.3266 14.39698571941613
IRIDIUM 47 [+]          
1 25106U 97082C   15334.53140619  .00000051  00000-0  11046-4 0  9997
2 25106  86.3949 131.4015 0002154  90.4894 311.1109 14.34217123939438
IRIDIUM 49 [+]          
1 25108U 97082E   15334.54426659  .00000071  00000-0  18360-4 0  9999
2 25108  86.3952 131.4838 0002100  90.4868 312.0293 14.34215830939447
IRIDIUM 52 [+]          
1 25169U 98010A   15334.21652939  .00000302  00000-0  10069-3 0  9998
2 25169  86.3994 226.4904 0001984  85.0970 275.0452 14.34216888930802
IRIDIUM 56 [+]          
1 25170U 98010B   15334.21018295  .00000327  00000-0  10977-3 0  9996
2 25170  86.4005 226.5954 0002101  75.8908 284.2521 14.34217515930788
IRIDIUM 54 [+]          
1 25171U 98010C   15334.24189686  .00000345  00000-0  11605-3 0  9992
2 25171  86.3995 226.4977 0001985  84.8123 275.3299 14.34216362930959
IRIDIUM 50 [+]          
1 25172U 98010D   15334.22565844  .00000295  00000-0  98134-4 0  9992
2 25172  86.3994 226.4638 0002050  86.4121  26.2922 14.34216706930782
IRIDIUM 53 [+]          
1 25173U 98010E   15334.44284137  .00000335  00000-0  11242-3 0  9999
2 25173  86.3994 226.3791 0001988  84.8301 330.3411 14.34217163930828
IRIDIUM 51 [S]          
1 25262U 98018A   15334.58730584  .00000292  00000-0  97199-4 0  9991
2 25262  86.3984 194.9732 0002130  89.1032 271.0408 14.34217171930231
IRIDIUM 61 [+]          
1 25263U 98018B   15334.54924617  .00000206  00000-0  66613-4 0  9992
2 25263  86.3986 194.8439 0002037  86.1888 273.9540 14.34216038925939
IRIDIUM 55 [+]          
1 25272U 98019A   15334.55217178  .00000048  00000-0  99143-5 0  9990
2 25272  86.3960 163.0635 0002053  88.8206 271.3225 14.34218237925135
IRIDIUM 57 [+]          
1 25273U 98019B   15334.10819437  .00000028  00000-0  30375-5 0  9998
2 25273  86.3965 163.5311 0002065  88.8381 271.3051 14.34217432925070
IRIDIUM 58 [+]          
1 25274U 98019C   15334.53314538  .00000033  00000-0  47022-5 0  9991
2 25274  86.3967 163.5346 0002129  88.0415 272.1025 14.34217938925130
IRIDIUM 59 [+]          
1 25275U 98019D   15334.53949126  .00000025  00000-0  18795-5 0  9995
2 25275  86.3962 163.4158 0002103  91.8207 268.3229 14.34216595925130
IRIDIUM 60 [+]          
1 25276U 98019E   15334.54583295  .00000025  00000-0  16921-5 0  9997
2 25276  86.3959 163.0548 0002036  88.8808 271.2621 14.34217624925137
IRIDIUM 62 [+]          
1 25285U 98021A   15334.50727524  .00000305  00000-0  10202-3 0  9996
2 25285  86.3965  99.9852 0002136  93.4487 266.6953 14.34210858924086
IRIDIUM 63 [-]          
1 25286U 98021B   15334.39496343  .00000215  00000-0  69257-4 0  9991
2 25286  86.3991 100.4010 0002238  97.2564 319.6117 14.34532124924074
IRIDIUM 64 [+]          
1 25287U 98021C   15334.58972886  .00000302  00000-0  10082-3 0  9992
2 25287  86.3965  99.9883 0001887  96.7415 263.3996 14.34210912924072
